NORAD_CAT_ID,OBJECT_NAME,OBJECT_TYPE,EPOCH,MEAN_MOTION,ECCENTRICITY,INCLINATION,RA_OF_ASC_NODE,ARG_OF_PERICENTER,MEAN_ANOMALY,BSTAR,MEAN_MOTION_DOT,MEAN_MOTION_DDOT,TLE_LINE0,TLE_LINE1,TLE_LINE2,SEMIMAJOR_AXIS,PERIOD,APOGEE,PERIGEE,DECAYED
51885.0,STARLINK-3584,PAYLOAD,2022-06-01 20:00:01,15.34641406,0.00014,53.2177,61.6105,55.0485,258.1922,-0.022861,-0.00718685,0.0,0 STARLINK-3584,1 51885U 22022AK  22152.83334491 -.00718685  00000-0 -22861-1 0  9999,2 51885  53.2177  61.6105 0001400  55.0485 258.1922 15.34641406  1302,6840.123000000001,93.833,462.945,461.03,0.0
51885.0,STARLINK-3584,PAYLOAD,2022-06-03 00:21:55,15.34098687,0.000148,53.2171,56.1115,41.5296,318.5819,-0.0059715,-0.00195119,0.0,0 STARLINK-3584,1 51885U 22022AK  22154.01522168 -.00195119  00000-0 -59715-2 0  9991,2 51885  53.2171  56.1115 0001480  41.5296 318.5819 15.34098687 15548,6841.736,93.866,464.614,462.588,0.0
51885.0,STARLINK-3584,PAYLOAD,2022-06-05 22:00:00,15.28391935,0.000172,53.2172,42.6249,45.8841,113.1325,-0.027678,-0.00723646,0.0,0 STARLINK-3584,1 51885U 22022AK  22156.91667824 -.00723646  00000-0 -27678-1 0  9995,2 51885  53.2172  42.6249 0001720  45.8841 113.1325 15.28391935 15981,6858.755999999999,94.217,481.801,479.441,0.0
51885.0,STARLINK-3584,PAYLOAD,2022-06-06 14:00:01,15.2737331,0.00015,53.2171,39.5404,59.4343,168.5281,-0.028652,-0.00725879,0.0,0 STARLINK-3584,1 51885U 22022AK  22157.58334491 -.00725879  00000-0 -28652-1 0  9993,2 51885  53.2171  39.5404 0001500  59.4343 168.5281 15.27373310  1304,6861.805,94.28,484.699,482.641,0.0
51885.0,STARLINK-3584,PAYLOAD,2022-06-06 22:00:00,15.26861504,0.0001719,53.2173,38.0026,46.6864,214.8292,-0.028958,-0.00722521,0.0,0 STARLINK-3584,1 51885U 22022AK  22157.91667824 -.00722521  00000-0 -28958-1 0  9999,2 51885  53.2173  38.0026 0001719  46.6864 214.8292 15.26861504 16138,6863.3380000000025,94.311,486.383,484.024,0.0
51885.0,STARLINK-3584,PAYLOAD,2022-06-07 14:00:01,15.25841117,0.000138,53.2173,34.9253,57.9416,268.8437,-0.02984,-0.00721801,0.0,0 STARLINK-3584,1 51885U 22022AK  22158.58334491 -.00721801  00000-0 -29840-1 0  9995,2 51885  53.2173  34.9253 0001380  57.9416 268.8437 15.25841117  1307,6866.398,94.374,489.21,487.315,0.0
51885.0,STARLINK-3584,PAYLOAD,2022-06-07 22:00:00,15.25333683,0.0001626,53.2173,33.3911,42.5971,315.9013,-0.030479,-0.00725775,0.0,0 STARLINK-3584,1 51885U 22022AK  22158.91667824 -.00725775  00000-0 -30479-1 0  9995,2 51885  53.2173  33.3911 0001626  42.5971 315.9013 15.25333683 16292,6867.920999999999,94.406,490.902,488.669,0.0
51885.0,STARLINK-3584,PAYLOAD,2022-06-08 14:00:01,15.24311837,0.0001431999999999,53.2173,30.3209,51.2168,8.8754,-0.031286,-0.00722616,0.0,0 STARLINK-3584,1 51885U 22022AK  22159.58334491 -.00722616  00000-0 -31286-1 0  9998,2 51885  53.2173  30.3209 0001432  51.2168   8.8754 15.24311837  1301,6870.99,94.469,493.839,491.871,0.0
51885.0,STARLINK-3584,PAYLOAD,2022-06-08 22:00:01,15.2380432,0.0001759,53.2173,28.7905,40.4141,49.6162,-0.031961,-0.00726802,0.0,0 STARLINK-3584,1 51885U 22022AK  22159.91668981 -.00726802  00000-0 -31961-1 0  9990,2 51885  53.2173  28.7905 0001759  40.4141  49.6162 15.23804320 16448,6872.515,94.5,495.589,493.171,0.0
51885.0,STARLINK-3584,PAYLOAD,2022-06-09 14:00:01,15.22783473,0.0001652,53.2174,25.7275,48.4029,99.4804,-0.032855,-0.0072483999999999,0.0,0 STARLINK-3584,1 51885U 22022AK  22160.58334491 -.00724840  00000-0 -32855-1 0  9994,2 51885  53.2174  25.7275 0001652  48.4029  99.4804 15.22783473  1300,6875.5859999999975,94.564,498.587,496.315,0.0
51885.0,STARLINK-3584,PAYLOAD,2022-06-09 22:00:00,15.22272611,0.0001842,53.2172,24.2005,43.8583,132.0628,-0.0333,-0.00723697,0.0,0 STARLINK-3584,1 51885U 22022AK  22160.91667824 -.00723697  00000-0 -33300-1 0  9995,2 51885  53.2172  24.2005 0001842  43.8583 132.0628 15.22272611  1303,6877.124,94.595,500.256,497.723,0.0
51885.0,STARLINK-3584,PAYLOAD,2022-06-10 00:00:00,15.22144619,0.0001725,53.2175,23.8188,46.8519,225.9829,-0.033352,-0.00722175,0.0,0 STARLINK-3584,1 51885U 22022AK  22161.00001157 -.00722175  00000-0 -33352-1 0  9994,2 51885  53.2175  23.8188 0001725  46.8519 225.9829 15.22144619 16605,6877.51,94.603,500.561,498.189,0.0
51885.0,STARLINK-3584,PAYLOAD,2022-06-10 14:00:01,15.2125283,0.000174,53.2173,21.1442,47.0313,183.1291,-0.034308,-0.00723456,0.0,0 STARLINK-3584,1 51885U 22022AK  22161.58334491 -.00723456  00000-0 -34308-1 0  9992,2 51885  53.2173  21.1442 0001740  47.0313 183.1291 15.21252830  1302,6880.198,94.659,503.26,500.865,0.0
51885.0,STARLINK-3584,PAYLOAD,2022-06-10 22:00:00,15.2074208,0.000188,53.2174,19.6209,41.9433,214.4163,-0.03476,-0.00722156,0.0,0 STARLINK-3584,1 51885U 22022AK  22161.91667824 -.00722156  00000-0 -34760-1 0  9996,2 51885  53.2174  19.6209 0001880  41.9433 214.4163 15.20742080  1303,6881.738,94.691,504.897,502.309,0.0
51885.0,STARLINK-3584,PAYLOAD,2022-06-11 06:00:00,15.20234581,0.0001519,53.2173,18.0961,54.2831,227.6637,-0.035527,-0.00726797,0.0,0 STARLINK-3584,1 51885U 22022AK  22162.25001157 -.00726797  00000-0 -35527-1 0  9992,2 51885  53.2173  18.0961 0001519  54.2831 227.6637 15.20234581 16791,6883.269,94.722,506.18,504.089,0.0
51885.0,STARLINK-3584,PAYLOAD,2022-06-11 22:00:00,15.19213544,0.0001769,53.2174,15.0525,40.7614,290.521,-0.036474,-0.00724431,0.0,0 STARLINK-3584,1 51885U 22022AK  22162.91667824 -.00724431  00000-0 -36474-1 0  9999,2 51885  53.2174  15.0525 0001769  40.7614 290.5210 15.19213544  1302,6886.353,94.786,509.436,507.0,0.0
51885.0,STARLINK-3584,PAYLOAD,2022-06-12 06:00:02,15.18704394,0.0001431999999999,53.2174,13.531,51.0779,304.0174,-0.037127,-0.00726374,0.0,0 STARLINK-3584,1 51885U 22022AK  22163.25002315 -.00726374  00000-0 -37127-1 0  9999,2 51885  53.2174  13.5310 0001432  51.0779 304.0174 15.18704394 16955,6887.892,94.818,510.744,508.771,0.0
51885.0,STARLINK-3584,PAYLOAD,2022-06-12 14:00:01,15.18191196,0.0001541999999999,53.2175,12.011,47.2429,330.9264,-0.03733,-0.00720018,0.0,0 STARLINK-3584,1 51885U 22022AK  22163.58334491 -.00720018  00000-0 -37330-1 0  9993,2 51885  53.2175  12.0110 0001542  47.2429 330.9264 15.18191196  1300,6889.444,94.85,512.372,510.247,0.0
51885.0,STARLINK-3584,PAYLOAD,2022-06-12 22:00:00,15.17684565,0.0001784,53.2174,10.4948,38.5067,2.1837,-0.038223,-0.00726104,0.0,0 STARLINK-3584,1 51885U 22022AK  22163.91667824 -.00726104  00000-0 -38223-1 0  9993,2 51885  53.2174  10.4948 0001784  38.5067   2.1837 15.17684565  1309,6890.977,94.881,514.072,511.61300000000006,0.0
51885.0,STARLINK-3584,PAYLOAD,2022-06-13 14:00:01,15.16661678,0.0001665,53.2174,7.4603,43.9424,39.9583,-0.039058,-0.00720788,0.0,0 STARLINK-3584,1 51885U 22022AK  22164.58334491 -.00720788  00000-0 -39058-1 0  9997,2 51885  53.2174   7.4603 0001665  43.9424  39.9583 15.16661678 17153,6894.075,94.945,517.0880000000002,514.793,0.0
51885.0,STARLINK-3584,PAYLOAD,2022-06-13 22:00:00,15.16154015,0.0001952,53.2174,5.9478,36.5875,67.9963,-0.039883,-0.00725096,0.0,0 STARLINK-3584,1 51885U 22022AK  22164.91667824 -.00725096  00000-0 -39883-1 0  9996,2 51885  53.2174   5.9478 0001952  36.5875  67.9963 15.16154015  1308,6895.614000000001,94.977,518.825,516.133,0.0
51885.0,STARLINK-3584,PAYLOAD,2022-06-14 14:00:01,15.15132189,0.0001868,53.2175,2.9205,41.2662,102.8508,-0.040847,-0.00721509,0.0,0 STARLINK-3584,1 51885U 22022AK  22165.58334491 -.00721509  00000-0 -40847-1 0  9998,2 51885  53.2175   2.9205 0001868  41.2662 102.8508 15.15132189 17305,6898.714,95.041,521.868,519.2909999999998,0.0
51885.0,STARLINK-3584,PAYLOAD,2022-06-14 22:00:00,15.14622464,0.000197,53.2174,1.4114,39.6185,123.344,-0.041482,-0.00722146,0.0,0 STARLINK-3584,1 51885U 22022AK  22165.91667824 -.00722146  00000-0 -41482-1 0  9998,2 51885  53.2174   1.4114 0001970  39.6185 123.3440 15.14622464  1307,6900.262,95.073,523.486,520.768,0.0
51885.0,STARLINK-3584,PAYLOAD,2022-06-15 14:00:01,15.13602363,0.0001924,53.2176,358.3914,41.4719,157.3463,-0.042659,-0.00721527,0.0,0 STARLINK-3584,1 51885U 22022AK  22166.58334491 -.00721527  00000-0 -42659-1 0  9992,2 51885  53.2176 358.3914 0001924  41.4719 157.3463 15.13602363 17454,6903.361999999999,95.137,526.555,523.899,0.0
51885.0,STARLINK-3584,PAYLOAD,2022-06-15 22:00:00,15.13091417,0.0001993,53.2174,356.8856,40.1562,175.6696,-0.043173,-0.007199,0.0,0 STARLINK-3584,1 51885U 22022AK  22166.91667824 -.00719900  00000-0 -43173-1 0  9992,2 51885  53.2174 356.8856 0001993  40.1562 175.6696 15.13091417  1308,6904.916,95.169,528.1569999999998,525.405,0.0
51885.0,STARLINK-3584,PAYLOAD,2022-06-16 02:00:01,15.12839787,0.0001701,53.2171,356.13199999999995,42.2616,1.8373,-0.043815,-0.0072503999999999,0.0,0 STARLINK-3584,1 51885U 22022AK  22167.08334491 -.00725040  00000-0 -43815-1 0  9997,2 51885  53.2171 356.1320 0001701  42.2616   1.8373 15.12839787  1305,6905.682,95.185,528.721,526.372,0.0
51885.0,STARLINK-3584,PAYLOAD,2022-06-19 14:00:01,15.08876301,0.0001683,53.2183,340.3882,47.8927,316.7920000000001,-0.0012085999999999,-0.00019491,0.0,0 STARLINK-3584,1 51885U 22022AK  22170.58334491 -.00019491  00000-0 -12086-2 0  9999,2 51885  53.2183 340.3882 0001683  47.8927 316.7920 15.08876301  1305,6917.769,95.435,540.799,538.47,0.0
51885.0,STARLINK-3584,PAYLOAD,2022-06-19 20:00:01,15.08866461,0.0001809,53.218,339.2672,42.4287,240.9824,-0.0021014,-0.00033601,0.0,0 STARLINK-3584,1 51885U 22022AK  22170.83334491 -.00033601  00000-0 -21014-2 0  9997,2 51885  53.2180 339.2672 0001809  42.4287 240.9824 15.08866461 18109,6917.8,95.436,540.9159999999998,538.413,0.0
51885.0,STARLINK-3584,PAYLOAD,2022-06-19 22:00:00,15.08847815,0.0001786999999999,53.2178,338.8932,40.4015,335.9198,-0.00029844,-5.036e-05,0.0,0 STARLINK-3584,1 51885U 22022AK  22170.91667824 -.00005036  00000-0 -29844-3 0  9996,2 51885  53.2178 338.8932 0001787  40.4015 335.9198 15.08847815  1307,6917.857,95.437,540.9580000000002,538.485,0.0
